[{"OBJECT_NAME":"STARLINK-34177","OBJECT_ID":"2025-113A","EPOCH":"2025-07-31T21:44:21.847488","MEAN_MOTION":15.30208298,"ECCENTRICITY":0.0001232,"INCLINATION":53.1616,"RA_OF_ASC_NODE":36.5503,"ARG_OF_PERICENTER":79.5184,"MEAN_ANOMALY":280.5956,"EPHEMERIS_TYPE":0,"CLASSIFICATION_TYPE":"U","NORAD_CAT_ID":64170,"ELEMENT_SET_NO":999,"REV_AT_EPOCH":1126,"BSTAR":0.00079852,"MEAN_MOTION_DOT":0.00023371,"MEAN_MOTION_DDOT":0},{"OBJECT_NAME":"STARLINK-34228","OBJECT_ID":"2025-113B","EPOCH":"2025-07-31T21:17:00.583584","MEAN_MOTION":15.30200792,"ECCENTRICITY":0.0001055,"INCLINATION":53.16,"RA_OF_ASC_NODE":36.4287,"ARG_OF_PERICENTER":80.947,"MEAN_ANOMALY":279.165,"EPHEMERIS_TYPE":0,"CLASSIFICATION_TYPE":"U","NORAD_CAT_ID":64171,"ELEMENT_SET_NO":999,"REV_AT_EPOCH":1126,"BSTAR":0.00064885,"MEAN_MOTION_DOT":0.00018907,"MEAN_MOTION_DDOT":0},{"OBJECT_NAME":"STARLINK-34233","OBJECT_ID":"2025-113C","EPOCH":"2025-07-31T22:04:07.298688","MEAN_MOTION":15.30195426,"ECCENTRICITY":0.0001151,"INCLINATION":53.1607,"RA_OF_ASC_NODE":36.6349,"ARG_OF_PERICENTER":85.2292,"MEAN_ANOMALY":274.884,"EPHEMERIS_TYPE":0,"CLASSIFICATION_TYPE":"U","NORAD_CAT_ID":64172,"ELEMENT_SET_NO":999,"REV_AT_EPOCH":1126,"BSTAR":0.0012438,"MEAN_MOTION_DOT":0.00036655,"MEAN_MOTION_DDOT":0},{"OBJECT_NAME":"STARLINK-34172","OBJECT_ID":"2025-113D","EPOCH":"2025-07-31T21:18:31.923936","MEAN_MOTION":15.30199968,"ECCENTRICITY":0.000108,"INCLINATION":53.1597,"RA_OF_ASC_NODE":36.4364,"ARG_OF_PERICENTER":88.9966,"MEAN_ANOMALY":271.1158,"EPHEMERIS_TYPE":0,"CLASSIFICATION_TYPE":"U","NORAD_CAT_ID":64173,"ELEMENT_SET_NO":999,"REV_AT_EPOCH":1122,"BSTAR":0.00060995,"MEAN_MOTION_DOT":0.00017749,"MEAN_MOTION_DDOT":0},{"OBJECT_NAME":"STARLINK-34202","OBJECT_ID":"2025-113E","EPOCH":"2025-07-31T21:53:29.183712","MEAN_MOTION":15.30204612,"ECCENTRICITY":0.0001003,"INCLINATION":53.1611,"RA_OF_ASC_NODE":36.5879,"ARG_OF_PERICENTER":60.0036,"MEAN_ANOMALY":300.1064,"EPHEMERIS_TYPE":0,"CLASSIFICATION_TYPE":"U","NORAD_CAT_ID":64174,"ELEMENT_SET_NO":999,"REV_AT_EPOCH":1126,"BSTAR":0.00089873,"MEAN_MOTION_DOT":0.00026357,"MEAN_MOTION_DDOT":0},{"OBJECT_NAME":"STARLINK-34231","OBJECT_ID":"2025-113F","EPOCH":"2025-07-31T22:16:16.579488","MEAN_MOTION":15.30203215,"ECCENTRICITY":0.0001073,"INCLINATION":53.1597,"RA_OF_ASC_NODE":36.6834,"ARG_OF_PERICENTER":76.7667,"MEAN_ANOMALY":283.3454,"EPHEMERIS_TYPE":0,"CLASSIFICATION_TYPE":"U","NORAD_CAT_ID":64175,"ELEMENT_SET_NO":999,"REV_AT_EPOCH":1126,"BSTAR":0.0010665,"MEAN_MOTION_DOT":0.00031364,"MEAN_MOTION_DDOT":0},{"OBJECT_NAME":"STARLINK-34191","OBJECT_ID":"2025-113G","EPOCH":"2025-07-31T19:24:43.290432","MEAN_MOTION":15.30198324,"ECCENTRICITY":0.0001228,"INCLINATION":53.1595,"RA_OF_ASC_NODE":36.6506,"ARG_OF_PERICENTER":80.0942,"MEAN_ANOMALY":280.0197,"EPHEMERIS_TYPE":0,"CLASSIFICATION_TYPE":"U","NORAD_CAT_ID":64176,"ELEMENT_SET_NO":999,"REV_AT_EPOCH":1125,"BSTAR":0.00030479,"MEAN_MOTION_DOT":8.678e-5,"MEAN_MOTION_DDOT":0},{"OBJECT_NAME":"STARLINK-34164","OBJECT_ID":"2025-113H","EPOCH":"2025-07-31T22:26:55.682016","MEAN_MOTION":15.30178299,"ECCENTRICITY":0.0001339,"INCLINATION":53.1591,"RA_OF_ASC_NODE":36.7334,"ARG_OF_PERICENTER":41.8534,"MEAN_ANOMALY":318.2569,"EPHEMERIS_TYPE":0,"CLASSIFICATION_TYPE":"U","NORAD_CAT_ID":64177,"ELEMENT_SET_NO":999,"REV_AT_EPOCH":1126,"BSTAR":0.00074967,"MEAN_MOTION_DOT":0.00021894,"MEAN_MOTION_DDOT":0},{"OBJECT_NAME":"STARLINK-34227","OBJECT_ID":"2025-113J","EPOCH":"2025-07-31T18:49:56.051328","MEAN_MOTION":15.30216524,"ECCENTRICITY":8.03e-5,"INCLINATION":53.1609,"RA_OF_ASC_NODE":37.2116,"ARG_OF_PERICENTER":88.5315,"MEAN_ANOMALY":271.5777,"EPHEMERIS_TYPE":0,"CLASSIFICATION_TYPE":"U","NORAD_CAT_ID":64178,"ELEMENT_SET_NO":999,"REV_AT_EPOCH":1124,"BSTAR":0.0011424,"MEAN_MOTION_DOT":0.00033646,"MEAN_MOTION_DDOT":0},{"OBJECT_NAME":"STARLINK-34194","OBJECT_ID":"2025-113K","EPOCH":"2025-07-31T21:06:22.570560","MEAN_MOTION":15.30196036,"ECCENTRICITY":8.78e-5,"INCLINATION":53.1595,"RA_OF_ASC_NODE":36.3831,"ARG_OF_PERICENTER":80.6364,"MEAN_ANOMALY":279.4736,"EPHEMERIS_TYPE":0,"CLASSIFICATION_TYPE":"U","NORAD_CAT_ID":64179,"ELEMENT_SET_NO":999,"REV_AT_EPOCH":1126,"BSTAR":0.00072106,"MEAN_MOTION_DOT":0.00021054,"MEAN_MOTION_DDOT":0},{"OBJECT_NAME":"STARLINK-34000","OBJECT_ID":"2025-113L","EPOCH":"2025-07-31T21:36:46.075392","MEAN_MOTION":15.30207395,"ECCENTRICITY":0.0001243,"INCLINATION":53.1613,"RA_OF_ASC_NODE":36.5126,"ARG_OF_PERICENTER":72.2765,"MEAN_ANOMALY":287.8371,"EPHEMERIS_TYPE":0,"CLASSIFICATION_TYPE":"U","NORAD_CAT_ID":64180,"ELEMENT_SET_NO":999,"REV_AT_EPOCH":1122,"BSTAR":0.00078687,"MEAN_MOTION_DOT":0.00023023,"MEAN_MOTION_DDOT":0},{"OBJECT_NAME":"STARLINK-33917","OBJECT_ID":"2025-113M","EPOCH":"2025-07-31T19:06:38.967840","MEAN_MOTION":15.30195056,"ECCENTRICITY":0.0001147,"INCLINATION":53.1594,"RA_OF_ASC_NODE":37.2807,"ARG_OF_PERICENTER":67.6738,"MEAN_ANOMALY":292.4384,"EPHEMERIS_TYPE":0,"CLASSIFICATION_TYPE":"U","NORAD_CAT_ID":64181,"ELEMENT_SET_NO":999,"REV_AT_EPOCH":1124,"BSTAR":0.00096644,"MEAN_MOTION_DOT":0.00028369,"MEAN_MOTION_DDOT":0},{"OBJECT_NAME":"STARLINK-34131","OBJECT_ID":"2025-113N","EPOCH":"2025-07-31T21:55:00.067008","MEAN_MOTION":15.30205918,"ECCENTRICITY":0.0001139,"INCLINATION":53.1612,"RA_OF_ASC_NODE":36.5874,"ARG_OF_PERICENTER":86.1297,"MEAN_ANOMALY":273.9834,"EPHEMERIS_TYPE":0,"CLASSIFICATION_TYPE":"U","NORAD_CAT_ID":64182,"ELEMENT_SET_NO":999,"REV_AT_EPOCH":1122,"BSTAR":0.00086597,"MEAN_MOTION_DOT":0.00025381,"MEAN_MOTION_DDOT":0},{"OBJECT_NAME":"STARLINK-34188","OBJECT_ID":"2025-113P","EPOCH":"2025-07-31T22:17:47.780736","MEAN_MOTION":15.30199469,"ECCENTRICITY":9.73e-5,"INCLINATION":53.1599,"RA_OF_ASC_NODE":36.6923,"ARG_OF_PERICENTER":88.693,"MEAN_ANOMALY":271.4182,"EPHEMERIS_TYPE":0,"CLASSIFICATION_TYPE":"U","NORAD_CAT_ID":64183,"ELEMENT_SET_NO":999,"REV_AT_EPOCH":1126,"BSTAR":0.0012163,"MEAN_MOTION_DOT":0.00035837,"MEAN_MOTION_DDOT":0},{"OBJECT_NAME":"STARLINK-34197","OBJECT_ID":"2025-113Q","EPOCH":"2025-07-31T17:40:12.207360","MEAN_MOTION":15.3015716,"ECCENTRICITY":0.0001304,"INCLINATION":53.1588,"RA_OF_ASC_NODE":37.6196,"ARG_OF_PERICENTER":71.9932,"MEAN_ANOMALY":288.1211,"EPHEMERIS_TYPE":0,"CLASSIFICATION_TYPE":"U","NORAD_CAT_ID":64184,"ELEMENT_SET_NO":999,"REV_AT_EPOCH":1123,"BSTAR":-3.3645e-5,"MEAN_MOTION_DOT":-1.354e-5,"MEAN_MOTION_DDOT":0},{"OBJECT_NAME":"STARLINK-34063","OBJECT_ID":"2025-113R","EPOCH":"2025-07-31T22:02:36.444768","MEAN_MOTION":15.30181025,"ECCENTRICITY":0.0001199,"INCLINATION":53.1606,"RA_OF_ASC_NODE":36.6228,"ARG_OF_PERICENTER":85.3055,"MEAN_ANOMALY":274.8082,"EPHEMERIS_TYPE":0,"CLASSIFICATION_TYPE":"U","NORAD_CAT_ID":64185,"ELEMENT_SET_NO":999,"REV_AT_EPOCH":1126,"BSTAR":0.00050522,"MEAN_MOTION_DOT":0.00014625,"MEAN_MOTION_DDOT":0},{"OBJECT_NAME":"STARLINK-34200","OBJECT_ID":"2025-113S","EPOCH":"2025-07-31T21:27:38.968128","MEAN_MOTION":15.30189285,"ECCENTRICITY":0.000129,"INCLINATION":53.1602,"RA_OF_ASC_NODE":36.4718,"ARG_OF_PERICENTER":81.0682,"MEAN_ANOMALY":279.0464,"EPHEMERIS_TYPE":0,"CLASSIFICATION_TYPE":"U","NORAD_CAT_ID":64186,"ELEMENT_SET_NO":999,"REV_AT_EPOCH":1126,"BSTAR":0.000608,"MEAN_MOTION_DOT":0.00017685,"MEAN_MOTION_DDOT":0}]
