STARLINK-34177          
1 64170U 25113A   25212.90580842  .00023371  00000+0  79852-3 0  9997
2 64170  53.1616  36.5503 0001232  79.5184 280.5956 15.30208298 11269
STARLINK-34228          
1 64171U 25113B   25212.88681231  .00018907  00000+0  64885-3 0  9998
2 64171  53.1600  36.4287 0001055  80.9470 279.1650 15.30200792 11264
STARLINK-34233          
1 64172U 25113C   25212.91952892  .00036655  00000+0  12438-2 0  9993
2 64172  53.1607  36.6349 0001151  85.2292 274.8840 15.30195426 11260
STARLINK-34172          
1 64173U 25113D   25212.88786949  .00017749  00000+0  60995-3 0  9993
2 64173  53.1597  36.4364 0001080  88.9966 271.1158 15.30199968 11226
STARLINK-34202          
1 64174U 25113E   25212.91214333  .00026357  00000+0  89873-3 0  9992
2 64174  53.1611  36.5879 0001003  60.0036 300.1064 15.30204612 11266
STARLINK-34231          
1 64175U 25113F   25212.92796967  .00031364  00000+0  10665-2 0  9998
2 64175  53.1597  36.6834 0001073  76.7667 283.3454 15.30203215 11266
STARLINK-34191          
1 64176U 25113G   25212.80883438  .00008678  00000+0  30479-3 0  9994
2 64176  53.1595  36.6506 0001228  80.0942 280.0197 15.30198324 11258
STARLINK-34164          
1 64177U 25113H   25212.93536669  .00021894  00000+0  74967-3 0  9995
2 64177  53.1591  36.7334 0001339  41.8534 318.2569 15.30178299 11267
STARLINK-34227          
1 64178U 25113J   25212.78467652  .00033646  00000+0  11424-2 0  9990
2 64178  53.1609  37.2116 0000803  88.5315 271.5777 15.30216524 11246
STARLINK-34194          
1 64179U 25113K   25212.87942790  .00021054  00000+0  72106-3 0  9997
2 64179  53.1595  36.3831 0000878  80.6364 279.4736 15.30196036 11263
STARLINK-34000          
1 64180U 25113L   25212.90053328  .00023023  00000+0  78687-3 0  9991
2 64180  53.1613  36.5126 0001243  72.2765 287.8371 15.30207395 11229
STARLINK-33917          
1 64181U 25113M   25212.79628435  .00028369  00000+0  96644-3 0  9997
2 64181  53.1594  37.2807 0001147  67.6738 292.4384 15.30195056 11241
STARLINK-34131          
1 64182U 25113N   25212.91319522  .00025381  00000+0  86597-3 0  9993
2 64182  53.1612  36.5874 0001139  86.1297 273.9834 15.30205918 11227
STARLINK-34188          
1 64183U 25113P   25212.92902524  .00035837  00000+0  12163-2 0  9999
2 64183  53.1599  36.6923 0000973  88.6930 271.4182 15.30199469 11260
STARLINK-34197          
1 64184U 25113Q   25212.73625240 -.00001354  00000+0 -33645-4 0  9995
2 64184  53.1588  37.6196 0001304  71.9932 288.1211 15.30157160 11235
STARLINK-34063          
1 64185U 25113R   25212.91847737  .00014625  00000+0  50522-3 0  9998
2 64185  53.1606  36.6228 0001199  85.3055 274.8082 15.30181025 11267
STARLINK-34200          
1 64186U 25113S   25212.89420102  .00017685  00000+0  60800-3 0  9998
2 64186  53.1602  36.4718 0001290  81.0682 279.0464 15.30189285 11264
